ORBCOMM FM37            
1 33064U 08031E   25092.46329043  .00003422  00000+0  48188-3 0  9999
2 33064  48.4405 343.5457 0005285  47.2786 122.6102 14.79388706903153
ORBCOMM FM40            
1 33065U 08031F   25092.42105067  .00003833  00000+0  51013-3 0  9991
2 33065  48.4422 329.0231 0006409  61.1396 109.5510 14.81525093903368
VESSELSAT 1             
1 37840U 11058C   25091.95418060  .00000457  00000+0  10471-3 0  9998
2 37840  19.9607 195.1680 0013794  68.0716 292.1154 14.11332228695526
ORBCOMM FM109           
1 40086U 14040A   25091.91998680  .00001583  00000+0  37771-3 0  9998
2 40086  47.0052  16.4515 0002177 337.0854  22.9934 14.58000251569934
ORBCOMM FM107           
1 40087U 14040B   25092.50015534  .00001691  00000+0  40041-3 0  9997
2 40087  47.0068  14.7029 0001863 295.6283  64.4410 14.58065422570134
ORBCOMM FM106           
1 40088U 14040C   25091.66630678  .00002426  00000+0  43874-3 0  9990
2 40088  47.0593 206.8541 0015990  71.0652 289.1970 14.69188498572223
ORBCOMM FM111           
1 40089U 14040D   25091.91133653  .00004938  00000+0  58193-3 0  9990
2 40089  47.0015  66.0643 0030071 188.6406 171.3976 14.85740947578888
ORBCOMM FM104           
1 40090U 14040E   25092.33725844  .00001510  00000+0  37353-3 0  9996
2 40090  47.0058  48.1714 0016671 221.2381 138.7245 14.56489492569668
